IRIDIUM 921 [-]         
1 24873U 97034E   23339.51509260  .00016510  00000+0  59144-3 0  9993
2 24873  86.3878  23.5484 0002200 264.3308  95.7689 15.28633232445352
IRIDIUM 26 [-]          
1 24903U 97043A   23339.53112401  .00000621  00000+0  20674-3 0  9998
2 24903  86.3956 345.4432 0002313  95.1611 264.9850 14.36107998376866
IRIDIUM 22 [-]          
1 24907U 97043E   23339.50681734  .00000578  00000+0  19624-3 0  9993
2 24907  86.3962 348.5351 0002125  91.0343 269.1097 14.35012667376473
DUMMY MASS 1 [-]        
1 24925U 97048A   23339.59418614  .00000588  00000+0  64170-4 0  9990
2 24925  86.3364  33.8690 0005917 349.1418  10.9678 14.85955138422003
DUMMY MASS 2 [-]        
1 24926U 97048B   23339.53197912  .00000583  00000+0  64006-4 0  9993
2 24926  86.3365  35.4063 0007220 358.3296   1.7903 14.85715888421781
IRIDIUM 29 [-]          
1 24944U 97051A   23339.50162343  .00000613  00000+0  20660-3 0  9995
2 24944  86.3975  18.4942 0001897  90.3560 269.7854 14.35469980372955
IRIDIUM 33 [-]          
1 24946U 97051C   23339.55993130  .00000368  00000+0  12434-3 0  9995
2 24946  86.3889  17.7393 0010019 102.0221 258.2098 14.34194305372514
IRIDIUM 28 [-]          
1 24948U 97051E   23339.49448426  .00000561  00000+0  18489-3 0  9994
2 24948  86.3980  16.3354 0002580  98.7496 261.3994 14.36412519373477
